{
  "type": "FeatureCollection",
  "features": [
    {
      "type": "Feature",
      "geometry": {
        "type": "Point",
        "coordinates": [
          51.9663352,
          50.7047246
        ]
      },
      "properties": {
        "id": "MURA-001",
        "slug": "zhumagazy-haziret-dadem-ata-kesenesi",
        "type": "mausoleum",
        "name_kk": "Жұмағазы хазірет (Дәдем ата) кесенесі",
        "name_ru": "Мавзолей Жумагазы-хазрет (Дадем ата)",
        "region_kk": "БҚО, Сырым ауданы, Тоғанас ауылдық округі",
        "region_ru": "ЗКО, Сырымский район, сельский округ Тоганас",
        "period_kk": "XIX ғасыр",
        "period_ru": "XIX век",
        "photo": "assets/objects/mura-001.jpg"
      }
    },
    {
      "type": "Feature",
      "geometry": {
        "type": "Point",
        "coordinates": [
          54.0698272,
          43.5970492
        ]
      },
      "properties": {
        "id": "MURA-002",
        "slug": "beket-ata-meshiti",
        "type": "underground_mosque",
        "name_kk": "Бекет ата мешіті",
        "name_ru": "Мечеть Бекет ата",
        "region_kk": "Маңғыстау облысы, Қарақия ауданы, Оғыланды шатқалы",
        "region_ru": "Мангистауская область, Каракиянский район, урочище Огыланды",
        "period_kk": "XVIII ғасыр",
        "period_ru": "XVIII век",
        "photo": "assets/objects/mura-002.jpg"
      }
    },
    {
      "type": "Feature",
      "geometry": {
        "type": "Point",
        "coordinates": [
          53.3897889,
          43.5480037
        ]
      },
      "properties": {
        "id": "MURA-003",
        "slug": "shopan-ata-qorymy",
        "type": "necropolis",
        "name_kk": "Шопан ата қорымы",
        "name_ru": "Некрополь Шопан ата",
        "region_kk": "Маңғыстау облысы, Қарақия ауданы, Сенек ауылы маңында, Түйесу құмының солтүстік шеті",
        "region_ru": "Мангистауская область, Каракиянский район, рядом с селом Сенек, северная граница песков Туйесу",
        "period_kk": "X-ХIХ ғғ.",
        "period_ru": "X-ХIХ в.",
        "photo": "assets/objects/mura-003.jpg"
      }
    },
    {
      "type": "Feature",
      "geometry": {
        "type": "Point",
        "coordinates": [
          68.2709232,
          43.2977379
        ]
      },
      "properties": {
        "id": "MURA-004",
        "slug": "qozha-ahmet-iassaui-kesenesi",
        "type": "mausoleum",
        "name_kk": "Қожа Ахмет Яссауи кесенесі",
        "name_ru": "Мавзолей Қожа Ахмет Яссауи",
        "region_kk": "ОҚО, Түркістан қаласы",
        "region_ru": "ЮКО, город Туркистан",
        "period_kk": "XIV-XV ғасыр",
        "period_ru": "XIV-XV в.",
        "photo": "assets/objects/mura-004.jpg"
      }
    },
    {
      "type": "Feature",
      "geometry": {
        "type": "Point",
        "coordinates": [
          51.1391178,
          44.4335258
        ]
      },
      "properties": {
        "id": "MURA-005",
        "slug": "shaqpaq-ata-meshiti",
        "type": "underground_mosque",
        "name_kk": "Шақпақ ата мешіті",
        "name_ru": "Мечеть Шакпак ата",
        "region_kk": "Маңғыстау облысы, Түпқараған ауданы, Таушық елді-мекені маңында",
        "region_ru": "Мангистауская область, Тупкараганский район, рядом с населенным пунктом Таушык",
        "period_kk": "X-ХV ғғ.",
        "period_ru": "X-ХV в.",
        "photo": "assets/objects/mura-005.jpg"
      }
    }
  ]
}